STARLINK-2099           
1 47379U 21005AG  26068.22596165  .00000356  00000+0  24152-4 0  9997
2 47379  53.1612  15.6956 0001349  92.1215 267.9941 15.30188698283650
2025-313BD              
1 67299U 25313BD  26068.62968741  .00081010  00000+0  27634-2 0  9995
2 67299  97.3970 145.2850 0007287 333.4514  26.6352 15.30002360 10838
